{
  "links" : {
    "next" : "https://api.nasa.gov/neo/rest/v1/feed?start_date=2012-09-23&end_date=2012-09-23&detailed=true&api_key=t0TVs3DtDT2H8Oy2Zy8m2eVrNsAVKAexjcZXUckd",
    "prev" : "https://api.nasa.gov/neo/rest/v1/feed?start_date=2012-09-21&end_date=2012-09-21&detailed=true&api_key=t0TVs3DtDT2H8Oy2Zy8m2eVrNsAVKAexjcZXUckd",
    "self" : "https://api.nasa.gov/neo/rest/v1/feed?start_date=2012-09-22&end_date=2012-09-22&detailed=true&api_key=t0TVs3DtDT2H8Oy2Zy8m2eVrNsAVKAexjcZXUckd"
  },
  "element_count" : 9,
  "near_earth_objects" : {
    "2012-09-22" : [ {
      "links" : {
        "self" : "https://api.nasa.gov/neo/rest/v1/neo/3609485?api_key=t0TVs3DtDT2H8Oy2Zy8m2eVrNsAVKAexjcZXUckd"
      },
      "neo_reference_id" : "3609485",
      "name" : "(2012 SF58)",
      "nasa_jpl_url" : "http://ssd.jpl.nasa.gov/sbdb.cgi?sstr=3609485",
      "absolute_magnitude_h" : 25.9,
      "estimated_diameter" : {
        "kilometers" : {
          "estimated_diameter_min" : 0.0175612318,
          "estimated_diameter_max" : 0.0392681082
        },
        "meters" : {
          "estimated_diameter_min" : 17.561231848,
          "estimated_diameter_max" : 39.2681081809
        },
        "miles" : {
          "estimated_diameter_min" : 0.0109120402,
          "estimated_diameter_max" : 0.0244000636
        },
        "feet" : {
          "estimated_diameter_min" : 57.6155918963,
          "estimated_diameter_max" : 128.8323800441
        }
      },
      "is_potentially_hazardous_asteroid" : false,
      "close_approach_data" : [ {
        "close_approach_date" : "2012-09-22",
        "epoch_date_close_approach" : 1348297200000,
        "relative_velocity" : {
          "kilometers_per_second" : "14.3448707554",
          "kilometers_per_hour" : "51641.5347196024",
          "miles_per_hour" : "32088.0413928551"
        },
        "miss_distance" : {
          "astronomical" : "0.018308906",
          "lunar" : "7.1221642494",
          "kilometers" : "2738973.25",
          "miles" : "1701919.125"
        },
        "orbiting_body" : "Earth"
      } ],
      "orbital_data" : {
        "orbit_id" : "4",
        "orbit_determination_date" : "2017-04-06 08:48:50",
        "orbit_uncertainty" : "8",
        "minimum_orbit_intersection" : ".0142738",
        "jupiter_tisserand_invariant" : "3.446",
        "epoch_osculation" : "2456197.5",
        "eccentricity" : ".5950461577978224",
        "semi_major_axis" : "2.145765803525145",
        "inclination" : "8.337116541418199",
        "ascending_node_longitude" : "184.0705050390664",
        "orbital_period" : "1148.079352615047",
        "perihelion_distance" : ".8689361066035503",
        "perihelion_argument" : "123.6720537245565",
        "aphelion_distance" : "3.422595500446739",
        "perihelion_time" : "2456155.996162533234",
        "mean_anomaly" : "13.01424109231031",
        "mean_motion" : ".3135671756312028",
        "equinox" : "J2000"
      }
    }, {
      "links" : {
        "self" : "https://api.nasa.gov/neo/rest/v1/neo/2335746?api_key=t0TVs3DtDT2H8Oy2Zy8m2eVrNsAVKAexjcZXUckd"
      },
      "neo_reference_id" : "2335746",
      "name" : "335746 (2007 EJ26)",
      "nasa_jpl_url" : "http://ssd.jpl.nasa.gov/sbdb.cgi?sstr=2335746",
      "absolute_magnitude_h" : 18.3,
      "estimated_diameter" : {
        "kilometers" : {
          "estimated_diameter_min" : 0.5815070396,
          "estimated_diameter_max" : 1.30028927
        },
        "meters" : {
          "estimated_diameter_min" : 581.5070396458,
          "estimated_diameter_max" : 1300.2892700427
        },
        "miles" : {
          "estimated_diameter_min" : 0.3613316107,
          "estimated_diameter_max" : 0.807962044
        },
        "feet" : {
          "estimated_diameter_min" : 1907.8315559515,
          "estimated_diameter_max" : 4266.0410487267
        }
      },
      "is_potentially_hazardous_asteroid" : false,
      "close_approach_data" : [ {
        "close_approach_date" : "2012-09-22",
        "epoch_date_close_approach" : 1348297200000,
        "relative_velocity" : {
          "kilometers_per_second" : "14.63702385",
          "kilometers_per_hour" : "52693.2858601271",
          "miles_per_hour" : "32741.558650144"
        },
        "miss_distance" : {
          "astronomical" : "0.3678828753",
          "lunar" : "143.1064453125",
          "kilometers" : "55034496",
          "miles" : "34196852"
        },
        "orbiting_body" : "Earth"
      } ],
      "orbital_data" : {
        "orbit_id" : "57",
        "orbit_determination_date" : "2017-04-06 09:23:24",
        "orbit_uncertainty" : "0",
        "minimum_orbit_intersection" : ".26063",
        "jupiter_tisserand_invariant" : "4.116",
        "epoch_osculation" : "2458000.5",
        "eccentricity" : ".2688509616045877",
        "semi_major_axis" : "1.641540282580894",
        "inclination" : "29.04522132440809",
        "ascending_node_longitude" : "176.3806456559483",
        "orbital_period" : "768.2025487171361",
        "perihelion_distance" : "1.200210599096354",
        "perihelion_argument" : "224.3455271064747",
        "aphelion_distance" : "2.082869966065434",
        "perihelion_time" : "2457794.431705701726",
        "mean_anomaly" : "96.56904428560347",
        "mean_motion" : ".4686264066699387",
        "equinox" : "J2000"
      }
    }, {
      "links" : {
        "self" : "https://api.nasa.gov/neo/rest/v1/neo/2337118?api_key=t0TVs3DtDT2H8Oy2Zy8m2eVrNsAVKAexjcZXUckd"
      },
      "neo_reference_id" : "2337118",
      "name" : "337118 (1999 TX2)",
      "nasa_jpl_url" : "http://ssd.jpl.nasa.gov/sbdb.cgi?sstr=2337118",
      "absolute_magnitude_h" : 18.3,
      "estimated_diameter" : {
        "kilometers" : {
          "estimated_diameter_min" : 0.5815070396,
          "estimated_diameter_max" : 1.30028927
        },
        "meters" : {
          "estimated_diameter_min" : 581.5070396458,
          "estimated_diameter_max" : 1300.2892700427
        },
        "miles" : {
          "estimated_diameter_min" : 0.3613316107,
          "estimated_diameter_max" : 0.807962044
        },
        "feet" : {
          "estimated_diameter_min" : 1907.8315559515,
          "estimated_diameter_max" : 4266.0410487267
        }
      },
      "is_potentially_hazardous_asteroid" : false,
      "close_approach_data" : [ {
        "close_approach_date" : "2012-09-22",
        "epoch_date_close_approach" : 1348297200000,
        "relative_velocity" : {
          "kilometers_per_second" : "34.184884078",
          "kilometers_per_hour" : "123065.582680975",
          "miles_per_hour" : "76468.1671941869"
        },
        "miss_distance" : {
          "astronomical" : "0.3963751849",
          "lunar" : "154.1899414062",
          "kilometers" : "59296884",
          "miles" : "36845376"
        },
        "orbiting_body" : "Earth"
      } ],
      "orbital_data" : {
        "orbit_id" : "51",
        "orbit_determination_date" : "2017-04-06 09:23:23",
        "orbit_uncertainty" : "0",
        "minimum_orbit_intersection" : ".196355",
        "jupiter_tisserand_invariant" : "4.484",
        "epoch_osculation" : "2458000.5",
        "eccentricity" : ".4635614831057528",
        "semi_major_axis" : "1.280798244589416",
        "inclination" : "61.38511319899008",
        "ascending_node_longitude" : "179.9577266322867",
        "orbital_period" : "529.4433678206886",
        "perihelion_distance" : ".6870695107683017",
        "perihelion_argument" : "53.54939378110594",
        "aphelion_distance" : "1.874526978410531",
        "perihelion_time" : "2458233.519272683953",
        "mean_anomaly" : "201.5563528323696",
        "mean_motion" : ".679959409977772",
        "equinox" : "J2000"
      }
    } ]
  }
}